NORAD_CAT_ID,OBJECT_NAME,OBJECT_TYPE,EPOCH,MEAN_MOTION,ECCENTRICITY,INCLINATION,RA_OF_ASC_NODE,ARG_OF_PERICENTER,MEAN_ANOMALY,BSTAR,MEAN_MOTION_DOT,MEAN_MOTION_DDOT,TLE_LINE0,TLE_LINE1,TLE_LINE2,SEMIMAJOR_AXIS,PERIOD,APOGEE,PERIGEE,DECAYED
51985.0,STARLINK-3651,PAYLOAD,2023-01-30 04:14:37,15.08838257,0.0001192,53.2138,92.1548,77.7801,282.3325,0.00011843,1.597e-05,0.0,0 STARLINK-3651,1 51985U 22025AF  23030.17682379  .00001597  00000-0  11843-3 0  9992,2 51985  53.2138  92.1548 0001192  77.7801 282.3325 15.08838257 50876,6917.886,95.438,540.575,538.926,0.0
51985.0,STARLINK-3651,PAYLOAD,2023-01-30 13:46:56,15.08843986,0.0001214,53.2145,90.3701,79.9973,280.1156,0.00017359,2.476e-05,0.0,0 STARLINK-3651,1 51985U 22025AF  23030.57426169  .00002476  00000-0  17359-3 0  9994,2 51985  53.2145  90.3701 0001214  79.9973 280.1156 15.08843986 49842,6917.868,95.437,540.573,538.893,0.0
51985.0,STARLINK-3651,PAYLOAD,2023-01-31 10:26:56,15.08846021,0.0001224,53.2151,86.5041,90.7773,269.3359,0.00017356,2.476e-05,0.0,0 STARLINK-3651,1 51985U 22025AF  23031.43538055  .00002476  00000-0  17356-3 0  9995,2 51985  53.2151  86.5041 0001224  90.7773 269.3359 15.08846021 51067,6917.862,95.437,540.574,538.88,0.0
51985.0,STARLINK-3651,PAYLOAD,2023-01-31 13:37:43,15.08848882,0.0001212,53.2153,85.9095,89.5104,270.6027,0.00023027,3.38e-05,0.0,0 STARLINK-3651,1 51985U 22025AF  23031.56785930  .00003380  00000-0  23027-3 0  9992,2 51985  53.2153  85.9095 0001212  89.5104 270.6027 15.08848882 49995,6917.853,95.437,540.557,538.88,0.0
51985.0,STARLINK-3651,PAYLOAD,2023-02-01 03:56:11,15.08840866,0.0001439,53.2151,83.2325,100.3932,259.7223,8.9242e-05,1.133e-05,0.0,0 STARLINK-3651,1 51985U 22025AF  23032.16402178  .00001133  00000-0  89242-4 0  9995,2 51985  53.2151  83.2325 0001439 100.3932 259.7223 15.08840866 51175,6917.878,95.437,540.738,538.747,0.0
51985.0,STARLINK-3651,PAYLOAD,2023-02-01 13:28:29,15.08848239,0.0001277,53.2154,81.4477,97.7272,262.3865,0.00017348,2.475e-05,0.0,0 STARLINK-3651,1 51985U 22025AF  23032.56145718  .00002475  00000-0  17348-3 0  9990,2 51985  53.2154  81.4477 0001277  97.7272 262.3865 15.08848239 50142,6917.855,95.437,540.604,538.837,0.0
51985.0,STARLINK-3651,PAYLOAD,2023-02-02 03:46:58,15.08831227,0.0001144,53.2165,78.7718,103.4484,256.6636,-0.00011542,-2.124e-05,0.0,0 STARLINK-3651,1 51985U 22025AF  23033.15762672 -.00002124  00000-0 -11542-3 0  9993,2 51985  53.2165  78.7718 0001144 103.4484 256.6636 15.08831227 51326,6917.907,95.438,540.564,538.981,0.0
51985.0,STARLINK-3651,PAYLOAD,2023-02-02 11:43:54,15.08838205,0.0001294,53.2167,77.2847,97.6157,262.4983,1.123e-05,-1.09e-06,0.0,0 STARLINK-3651,1 51985U 22025AF  23033.48882498 -.00000109  00000-0  11230-4 0  9993,2 51985  53.2167  77.2847 0001294  97.6157 262.4983 15.08838205 50289,6917.886,95.438,540.646,538.856,0.0
51985.0,STARLINK-3651,PAYLOAD,2023-02-03 11:34:41,15.08842878,0.0001271,53.2156,72.8245,89.4775,270.6363,0.00022214,3.25e-05,0.0,0 STARLINK-3651,1 51985U 22025AF  23034.48242700  .00003250  00000-0  22214-3 0  9992,2 51985  53.2156  72.8245 0001271  89.4775 270.6363 15.08842878 50431,6917.872,95.437,540.616,538.857,0.0
51985.0,STARLINK-3651,PAYLOAD,2023-02-04 11:25:28,15.08854348,0.0001346,53.2154,68.3648,103.7635,256.3507,0.00043161,6.59e-05,0.0,0 STARLINK-3651,1 51985U 22025AF  23035.47602309  .00006590  00000-0  43161-3 0  9991,2 51985  53.2154  68.3648 0001346 103.7635 256.3507 15.08854348 51677,6917.837,95.437,540.633,538.77,0.0
51985.0,STARLINK-3651,PAYLOAD,2023-02-04 13:00:51,15.08858221,0.0001169,53.2151,68.0671,94.5083,265.6043,0.00050543,7.769e-05,0.0,0 STARLINK-3651,1 51985U 22025AF  23035.54226158  .00007769  00000-0  50543-3 0  9994,2 51985  53.2151  68.0671 0001169  94.5083 265.6043 15.08858221 50596,6917.825,95.436,540.498,538.881,0.0
51985.0,STARLINK-3651,PAYLOAD,2023-02-04 19:22:24,15.08840202,0.000132,53.2152,66.8777,87.032,273.0823,8.2648e-05,1.028e-05,0.0,0 STARLINK-3651,1 51985U 22025AF  23035.80722791  .00001028  00000-0  82648-4 0  9991,2 51985  53.2152  66.8777 0001320  87.0320 273.0823 15.08840202 51725,6917.88,95.438,540.658,538.832,0.0
51985.0,STARLINK-3651,PAYLOAD,2023-02-05 12:51:38,15.08848513,0.0001357,53.2149,63.6067,86.4557,273.659,0.00055994,8.637e-05,0.0,0 STARLINK-3651,1 51985U 22025AF  23036.53586583  .00008637  00000-0  55994-3 0  9995,2 51985  53.2149  63.6067 0001357  86.4557 273.6590 15.08848513 50744,6917.854,95.437,540.658,538.781,0.0
51985.0,STARLINK-3651,PAYLOAD,2023-02-05 19:13:11,15.0883878,0.000135,53.2147,62.4165,84.0787,276.0359,0.00024735,3.651e-05,0.0,0 STARLINK-3651,1 51985U 22025AF  23036.80082787  .00003651  00000-0  24735-3 0  9992,2 51985  53.2147  62.4165 0001350  84.0787 276.0359 15.08838780 50789,6917.884,95.438,540.683,538.815,0.0
51985.0,STARLINK-3651,PAYLOAD,2023-02-06 11:07:02,15.08854868,0.0001417,53.2153,59.4427,86.0781,274.0374,0.00048524,7.446e-05,0.0,0 STARLINK-3651,1 51985U 22025AF  23037.46322441  .00007446  00000-0  48524-3 0  9997,2 51985  53.2153  59.4427 0001417  86.0781 274.0374 15.08854868 51975,6917.835,95.437,540.68,538.72,0.0
51985.0,STARLINK-3651,PAYLOAD,2023-02-06 12:42:25,15.08858249,0.0001405,53.2151,59.1454,83.5951,276.5202,0.00071981,0.00011192,0.0,0 STARLINK-3651,1 51985U 22025AF  23037.52946400  .00011192  00000-0  71981-3 0  9997,2 51985  53.2151  59.1454 0001405  83.5951 276.5202 15.08858249 50892,6917.825,95.436,540.662,538.718,0.0
51985.0,STARLINK-3651,PAYLOAD,2023-02-07 10:57:50,15.08838233,0.0001521,53.2155,54.9822,97.098,263.0185,0.00067025,0.00010395,0.0,0 STARLINK-3651,1 51985U 22025AF  23038.45683707  .00010395  00000-0  67025-3 0  9996,2 51985  53.2155  54.9822 0001521  97.0980 263.0185 15.08838233 52129,6917.886,95.438,540.803,538.699,0.0
51985.0,STARLINK-3651,PAYLOAD,2023-02-07 12:33:13,15.08843881,0.0001438,53.2154,54.6847,93.4986,266.6171,0.00092974,0.00014541,0.0,0 STARLINK-3651,1 51985U 22025AF  23038.52307664  .00014541  00000-0  92974-3 0  9997,2 51985  53.2154  54.6847 0001438  93.4986 266.6171 15.08843881 51044,6917.869,95.437,540.728,538.739,0.0
51985.0,STARLINK-3651,PAYLOAD,2023-02-08 07:37:50,15.08870451,0.000162,53.2158,51.1161,102.58,257.5373,0.0013253,0.00020885,0.0,0 STARLINK-3651,1 51985U 22025AF  23039.31795100  .00020885  00000-0  13253-2 0  9991,2 51985  53.2158  51.1161 0001620 102.5800 257.5373 15.08870451 52259,6917.787,95.436,540.773,538.532,0.0
51985.0,STARLINK-3651,PAYLOAD,2023-02-08 12:23:59,15.08887054,0.000154,53.2157,50.2234,95.8437,264.2731,0.0016462,0.00026042,0.0,0 STARLINK-3651,1 51985U 22025AF  23039.51666479  .00026042  00000-0  16462-2 0  9995,2 51985  53.2157  50.2234 0001540  95.8437 264.2731 15.08887054 51192,6917.737,95.435,540.667,538.536,0.0
51985.0,STARLINK-3651,PAYLOAD,2023-02-09 01:07:05,15.08845657,0.0001929,53.2158,47.8448,97.2022,262.9189,0.00068999,0.00010712,0.0,0 STARLINK-3651,1 51985U 22025AF  23040.04659090  .00010712  00000-0  68999-3 0  9996,2 51985  53.2158  47.8448 0001929  97.2022 262.9189 15.08845657 52364,6917.863,95.437,541.063,538.394,0.0
51985.0,STARLINK-3651,PAYLOAD,2023-02-09 07:28:38,15.08843592,0.0001523,53.2162,46.6563,99.8421,260.2743,0.0013227,0.00020828,0.0,0 STARLINK-3651,1 51985U 22025AF  23040.31155093  .00020828  00000-0  13227-2 0  9992,2 51985  53.2162  46.6563 0001523  99.8421 260.2743 15.08843592 51312,6917.869,95.437,540.788,538.681,0.0
51985.0,STARLINK-3651,PAYLOAD,2023-02-09 17:00:57,15.08818337,0.0002021,53.2164,44.8706,89.9833,270.1391,0.0012941,0.00020356,0.0,0 STARLINK-3651,1 51985U 22025AF  23040.70899600  .00020356  00000-0  12941-2 0  9992,2 51985  53.2164  44.8706 0002021  89.9833 270.1391 15.08818337 52469,6917.947,95.439,541.21,538.413,0.0
51985.0,STARLINK-3651,PAYLOAD,2023-02-10 10:30:11,15.08879597,0.0001317,53.2163,41.6005,96.5261,263.5881,0.0029907,0.00047683,0.0,0 STARLINK-3651,1 51985U 22025AF  23041.43762903  .00047683  00000-0  29907-2 0  9990,2 51985  53.2163  41.6005 0001317  96.5261 263.5881 15.08879597 52578,6917.759,95.435,540.535,538.713,0.0
51985.0,STARLINK-3651,PAYLOAD,2023-02-11 13:31:43,15.08863244,0.0002012,53.2154,36.5372,153.0286,207.0811,0.0016267,0.00025713,0.0,0 STARLINK-3651,1 51985U 22025AF  23042.56370265  .00025713  00000-0  16267-2 0  9996,2 51985  53.2154  36.5372 0002012 153.0286 207.0811 15.08863244 51653,6917.809,95.436,541.066,538.282,0.0
51985.0,STARLINK-3651,PAYLOAD,2023-02-11 23:04:00,15.08965833,0.0003808,53.2164,34.7609,45.1587,314.9714,0.0059576,0.00096162,0.0,0 STARLINK-3651,1 51985U 22025AF  23042.96111875  .00096162  00000-0  59576-2 0  9996,2 51985  53.2164  34.7609 0003808  45.1587 314.9714 15.08965833 52801,6917.496,95.43,541.995,536.727,0.0
51985.0,STARLINK-3651,PAYLOAD,2023-02-12 14:00:01,15.08811646,0.0001074,53.2157,31.9687,93.9088,47.692,0.00083302,0.00012984,0.0,0 STARLINK-3651,1 51985U 22025AF  23043.58334491  .00012984  00000-0  83302-3 0  9991,2 51985  53.2157  31.9687 0001074  93.9088  47.6920 15.08811646 52900,6917.967,95.439,540.575,539.089,0.0
51985.0,STARLINK-3651,PAYLOAD,2023-02-12 22:54:50,15.08831876,0.0001268,53.2164,30.3001,94.7104,265.4033,0.002337,0.00037093,0.0,0 STARLINK-3651,1 51985U 22025AF  23043.95475686  .00037093  00000-0  23370-2 0  9990,2 51985  53.2164  30.3001 0001268  94.7104 265.4033 15.08831876 52951,6917.905,95.438,540.647,538.893,0.0
51985.0,STARLINK-3651,PAYLOAD,2023-02-13 10:02:32,15.08866391,0.0001299,53.2161,28.2201,90.1104,270.0037,0.002509,0.00039898,0.0,0 STARLINK-3651,1 51985U 22025AF  23044.41843345  .00039898  00000-0  25090-2 0  9999,2 51985  53.2161  28.2201 0001299  90.1104 270.0037 15.08866391 51933,6917.8,95.436,540.563,538.766,0.0
51985.0,STARLINK-3651,PAYLOAD,2023-02-13 16:24:05,15.08833509,0.0001833,53.2167,27.0293,89.7841,270.3361,0.00037732,5.721e-05,0.0,0 STARLINK-3651,1 51985U 22025AF  23044.68339777  .00005721  00000-0  37732-3 0  9992,2 51985  53.2167  27.0293 0001833  89.7841 270.3361 15.08833509 53067,6917.9,95.438,541.033,538.497,0.0
